IRIDIUM 36 [-]          
1 24967U 97056C   24020.56559551  .00000785  00000+0  26065-3 0  9995
2 24967  86.3955  28.6502 0002072  92.5114 267.6320 14.36590536378457
IRIDIUM 39 [-]          
1 25042U 97069D   24020.62133444  .00001125  00000+0  29950-3 0  9995
2 25042  86.3888  71.1281 0017103 214.2281 145.7821 14.47636400374623
IRIDIUM 42 [-]          
1 25077U 97077A   24020.70627029  .00000699  00000+0  23708-3 0  9998
2 25077  86.3951  94.6108 0002115  74.6807 285.4623 14.35357470367515
IRIDIUM 44 [-]          
1 25078U 97077B   24020.64402605  .00000790  00000+0  24889-3 0  9996
2 25078  86.3929  77.9301 0000318  73.1080 287.0153 14.39170517369810
IRIDIUM 45 [-]          
1 25104U 97082A   24020.80170902  .00016922  00000+0  10307-2 0  9995
2 25104  86.3752 291.6688 0174906  57.9894 303.8197 14.98288340374859
IRIDIUM 24 [-]          
1 25105U 97082B   24020.84559162  .00001035  00000+0  31622-3 0  9992
2 25105  86.3919 297.6942 0010859 343.5022  16.5822 14.40945617369263
IRIDIUM 51 [-]          
1 25262U 98018A   24020.85076050  .00026573  00000+0  13806-2 0  9994
2 25262  86.3930 301.8974 0158495   8.9753 351.4253 15.05632561369054
